{
    "type": "Feature",
    "properties": {
        "plot": "0",
        "size": "0",
        "status": 1,
        "type": 0
      },
    "geometry":{
            "type":"Polygon",
            "coordinates":[
               [
                [
                    38.712870219828574,
                    -6.782228666291325
                  ],
                  [
                    38.712945301503936,
                    -6.782132782462893
                  ],
                  [
                    38.722330510925154,
                    -6.782015591091102
                  ],
                  [
                    38.722427044507754,
                    -6.782026244853355
                  ],
                  [
                    38.72228760711065,
                    -6.7817279394213354
                  ],
                  [
                    38.71722495699999,
                    -6.781994283565897
                  ],
                  [
                    38.71649559215356,
                    -6.780619946199716
                  ],
                  [
                    38.71657102404482,
                    -6.7804707930714745
                  ],
                  [
                    38.71614734887667,
                    -6.780486773765991
                  ],
                  [
                    38.7163028752042,
                    -6.780577331024933
                  ],
                  [
                    38.71683917288542,
                    -6.781871765277693
                  ],
                  [
                    38.716780180140496,
                    -6.78194634163074
                  ],
                  [
                    38.712945517686556,
                    -6.781941014748767
                  ],
                  [
                    38.71282753219671,
                    -6.781845130863086
                  ],
                  [
                    38.71283825815035,
                    -6.782196705017302
                  ]
               ]
            ]
        }
    }