[
  {
    "type": "Feature",
    "properties": {
        "plot": "119",
        "size": "18,337",
        "status": 1
      },
    "geometry":{
            "type":"Polygon",
            "coordinates":[
                [
                   [  38.716591552131526,
                   -6.780438831680839
                 ],
                 [
                   38.716497402322936,
                   -6.78060929240637
                 ],
                 [
                   38.71722676716937,
                   -6.781983629802944
                 ],
                 [
                   38.71807411750571,
                   -6.7819516685126615
                 ],
                 [
                   38.718159925134714,
                   -6.781877092160429
                 ],
                 [
                   38.718385170160786,
                   -6.780502754459985
                 ],
                 [
                   38.71823500681007,
                   -6.780396216490039
                 ]
                ]
            ]
        }
    },
    {
      "type": "Feature",
      "properties": {
          "plot": "120",
          "size": "45,886",
          "status": 1
        },
      "geometry":{
              "type":"Polygon",
              "coordinates":[
                  [
                      [
                          38.71862114114054,
                          -6.7803749088932195
                        ],
                        [
                          38.71854605946518,
                          -6.780481446867873
                        ],
                        [
                          38.71836371825357,
                          -6.781813169563618
                        ],
                        [
                          38.718417348021674,
                          -6.781909053455661
                        ],
                        [
                          38.718438799928926,
                          -6.7819197072202675
                        ],
                        [
                          38.72230014323367,
                          -6.7817279394213354
                        ],
                        [
                          38.72167803792344,
                          -6.780385562691756
                        ],
                        [
                          38.72148497075819,
                          -6.780279024695894
                        ]
                  ]
              ]
          }
      },
    {
      "type": "Feature",
      "properties": {
        "plot": "373",
        "size": "95,006",
        "status": 1
      },
      "geometry": {
        "type": "Polygon",
        "coordinates": [
          [
            [38.722207290952724, -6.770003053450008],
            [38.721538728515114, -6.772165282572815],
            [38.72151215657994, -6.772347166723752],
            [38.72152215172889, -6.77253372996141],
            [38.717139640332746, -6.772533122903327],
            [38.717025495665354, -6.770115331174424],
            [38.71959812878657, -6.7699388511182095],
            [38.72080478895482, -6.770040361573068],
            [38.722207290952724, -6.770003053450008]
          ]
        ]
      }
    },
    {
      "type": "Feature",
      "properties": {
        "plot": "379",
        "size": "104,047",
        "status": 1
      },
      "geometry": {
        "type": "Polygon",
        "coordinates": [
          [
            [38.72152215172889, -6.77253372996141],
            [38.721483162309674, -6.775504913208602],
            [38.717241239047674, -6.775504913208602],
            [38.717139640332746, -6.772533122903327]
          ]
        ]
      }
    },
    {
      "type": "Feature",
      "properties": {
        "plot": "372",
        "size": "110,969",
        "status": 0
      },
      "geometry": {
        "type": "Polygon",
        "coordinates": [
          [
            [38.717025495665354, -6.770115331174424],
            [38.716736804141505, -6.770136956345964],
            [38.715336544950425, -6.770444424342149],
            [38.714145116451924, -6.770530495490963],
            [38.71283779296874, -6.770450179011817],
            [38.71279941065889, -6.772016330628856],
            [38.71276247894484, -6.772128216531441],
            [38.712837533095936, -6.772650601081891],
            [38.717139640332746, -6.772533122903327]
          ]
        ]
      }
    },
    {
      "type": "Feature",
      "properties": {
        "plot": "378",
        "size": "103,471",
        "status": 1
      },
      "geometry": {
        "type": "Polygon",
        "coordinates": [
          [
            [38.71282712674068, -6.772645098322229],
            [38.71284805472938, -6.775409601573229],
            [38.717241239047674, -6.775504913208602],
            [38.717139640332746, -6.772533122903327]
          ]
        ]
      }
    },
    {
      "type": "Feature",
      "properties": {
        "plot": "381",
        "size": "100,595",
        "status": 1
      },
      "geometry": {
        "type": "Polygon",
        "coordinates": [
          [
            [38.72148991652563, -6.775985036411219],
            [38.71719294464111, -6.775910169199679],
            [38.71716112135862, -6.777780208146222],
            [38.72148420826056, -6.777764751963174]
          ]
        ]
      }
    },
    {
      "type": "Feature",
      "properties": {
        "plot": "384",
        "size": "76,100",
        "status": 0
      },
      "geometry": {
        "type": "Polygon",
        "coordinates": [
          [
            [
              38.71715063052267,
              -6.780071275536234
            ],
            [
              38.7214892787637,
              -6.779874180096857
            ],
            [
              38.72150536769413,
              -6.779820911045346
            ],
            [
              38.721462463879625,
              -6.777775375013812
            ],
            [
              38.71716135647631,
              -6.77778070194184
            ],
            [
              38.71715599349948,
              -6.780060621730764
            ]
          ]
        ]
      }
    },
    {
      "type": "Feature",
      "properties": {
        "plot": "380",
        "size": "83,150",
        "status": 1
      },
      "geometry": {
        "type": "Polygon",
        "coordinates": [
          [
            [38.717193189110404, -6.775915603062241],
            [38.71284269279576, -6.775787902153108],
            [38.71283773185143, -6.777833266314336],
            [38.71716112135862, -6.777780208146222]
          ]
        ]
      }
    },
    {
      "type": "Feature",
      "properties": {
        "plot": "382",
        "size": "71,888",
        "status": 0
      },
      "geometry": {
        "type": "Polygon",
        "coordinates": [
          [
            [
              38.71285938145997,
              -6.780268370895017
            ],
            [
              38.7171283110024,
              -6.780065948633525
            ],
            [
              38.717139036956034,
              -6.777786028869802
            ],
            [
              38.71283792955273,
              -6.777839298146191
            ],
            [
              38.71285938145997,
              -6.780268370895017
            ]
          ]
        ]
      }
    },
    {
      "type": "Feature",
      "properties": {
          "plot": "0",
          "size": "71,888",
          "status": 1,
          "type":0
        },
      "geometry":{
              "type":"Polygon",
              "coordinates":[
                  [
                    [
                      38.712859021155545,
                      -6.78023640949096
                    ],
                    [
                      38.712912650923656,
                      -6.780279024695894
                    ],
                    [
                      38.72145051000858,
                      -6.779895487715799
                    ],
                    [
                      38.721514865730285,
                      -6.779820911045346
                    ],
                    [
                      38.72160067335929,
                      -6.780033987216045
                    ],
                    [
                      38.72165430312744,
                      -6.780279024695894
                    ],
                    [
                      38.72171865884915,
                      -6.7804068702880915
                    ],
                    [
                      38.72148268786943,
                      -6.7803003322969495
                    ],
                    [
                      38.71862958420539,
                      -6.780396216490039
                    ],
                    [
                      38.71823272392127,
                      -6.7804068702880915
                    ],
                    [
                      38.71286974710915,
                      -6.78060929240637
                    ],
                    [
                      38.7128375692483,
                      -6.780673215162896
                    ],
                    [
                      38.712859021155545,
                      -6.78023640949096
                    ]
                  ]
              ]
          }
      },
      {
        "type": "Feature",
        "properties": {
            "plot": "0",
            "size": "0",
            "status": 1,
            "type":0
          },
        "geometry":{
                "type":"Polygon",
                "coordinates":[
                    [
                        [   38.71284683380722,
                        -6.775878984898028
                      ],
                      [
                        38.712921915482575,
                        -6.775804407606222
                      ],
                      [
                        38.721384692892094,
                        -6.775964216074538
                      ],
                      [
                        38.721491952428345,
                        -6.776049447235986
                      ],
                      [
                        38.7215134043356,
                        -6.775463482696802
                      ],
                      [
                        38.7214275967066,
                        -6.775516752229785
                      ],
                      [
                        38.71291118952897,
                        -6.775410213157929
                      ],
                      [
                        38.71285755976083,
                        -6.775335635793631
                      ],
                      [   38.71284683380722,
                        -6.775878984898028
                      ]
                    ]
                ]
            }
        },
        {
          "type": "Feature",
          "properties": {
              "plot": "0",
              "size": "0",
              "status": 1,
              "type":0
            },
          "geometry":{
                  "type":"Polygon",
                  "coordinates":[
                     [
                      [
                          38.718254775375094,
                          -6.7804068702880915
                        ],
                        [
                          38.71837276086495,
                          -6.78050808135786
                        ],
                        [
                          38.71814751583884,
                          -6.781877092160429
                        ],
                        [
                          38.71806707118666,
                          -6.78195699539452
                        ],
                        [
                          38.718421027656284,
                          -6.7819197072202675
                        ],
                        [
                          38.7183620349113,
                          -6.781829150213619
                        ],
                        [
                          38.718549739099736,
                          -6.780492100664044
                        ],
                       
                        [
                          38.71860336886789,
                          -6.780396216490039
                        ],
                        [
                          38.718254775375094,
                          -6.7804068702880915
                        ]
                     ]
                  ]
              }
          }
  ]