{
    "type": "Feature",
    "properties": {
        "plot": "0",
        "size": "0",
        "status": 1,
        "type":0
      },
    "geometry":{
            "type":"Polygon",
            "coordinates":[
               [
                [
                    38.718254775375094,
                    -6.7804068702880915
                  ],
                  [
                    38.71837276086495,
                    -6.78050808135786
                  ],
                  [
                    38.71814751583884,
                    -6.781877092160429
                  ],
                  [
                    38.71806707118666,
                    -6.78195699539452
                  ],
                  [
                    38.718421027656284,
                    -6.7819197072202675
                  ],
                  [
                    38.7183620349113,
                    -6.781829150213619
                  ],
                  [
                    38.718549739099736,
                    -6.780492100664044
                  ],
                 
                  [
                    38.71860336886789,
                    -6.780396216490039
                  ],
                  [
                    38.718254775375094,
                    -6.7804068702880915
                  ]
               ]
            ]
        }
    }